[{"OBJECT_NAME":"ANIK D1 (TELESAT 6)","OBJECT_ID":"1982-082A","EPOCH":"2026-04-04T11:43:54.958656","MEAN_MOTION":1.00134199,"ECCENTRICITY":0.0007824,"INCLINATION":12.2923,"RA_OF_ASC_NODE":333.4299,"ARG_OF_PERICENTER":345.9356,"MEAN_ANOMALY":187.6291,"EPHEMERIS_TYPE":0,"CLASSIFICATION_TYPE":"U","NORAD_CAT_ID":13431,"ELEMENT_SET_NO":999,"REV_AT_EPOCH":4586,"BSTAR":0,"MEAN_MOTION_DOT":-3.25e-6,"MEAN_MOTION_DDOT":0},{"OBJECT_NAME":"EKRAN 9","OBJECT_ID":"1982-093A","EPOCH":"2026-04-04T14:21:45.343008","MEAN_MOTION":1.00245679,"ECCENTRICITY":0.0027962,"INCLINATION":7.2512,"RA_OF_ASC_NODE":300.2076,"ARG_OF_PERICENTER":8.9351,"MEAN_ANOMALY":201.3007,"EPHEMERIS_TYPE":0,"CLASSIFICATION_TYPE":"U","NORAD_CAT_ID":13554,"ELEMENT_SET_NO":999,"REV_AT_EPOCH":11926,"BSTAR":0,"MEAN_MOTION_DOT":-3.24e-6,"MEAN_MOTION_DDOT":0},{"OBJECT_NAME":"GORIZONT 6","OBJECT_ID":"1982-103A","EPOCH":"2026-04-04T05:07:31.005120","MEAN_MOTION":1.00269663,"ECCENTRICITY":0.00031925,"INCLINATION":7.5008,"RA_OF_ASC_NODE":302.4255,"ARG_OF_PERICENTER":357.1692,"MEAN_ANOMALY":158.1478,"EPHEMERIS_TYPE":0,"CLASSIFICATION_TYPE":"U","NORAD_CAT_ID":13624,"ELEMENT_SET_NO":999,"REV_AT_EPOCH":12020,"BSTAR":0,"MEAN_MOTION_DOT":8.2e-7,"MEAN_MOTION_DDOT":0},{"OBJECT_NAME":"SL-12 R/B(2)","OBJECT_ID":"1982-103E","EPOCH":"2026-04-03T23:44:31.983648","MEAN_MOTION":1.00345659,"ECCENTRICITY":0.0010707,"INCLINATION":7.4611,"RA_OF_ASC_NODE":302.3047,"ARG_OF_PERICENTER":189.8169,"MEAN_ANOMALY":192.2398,"EPHEMERIS_TYPE":0,"CLASSIFICATION_TYPE":"U","NORAD_CAT_ID":13630,"ELEMENT_SET_NO":999,"REV_AT_EPOCH":12076,"BSTAR":0,"MEAN_MOTION_DOT":-3.1e-6,"MEAN_MOTION_DDOT":0},{"OBJECT_NAME":"SATCOM C5","OBJECT_ID":"1982-105A","EPOCH":"2026-04-04T05:26:06.721152","MEAN_MOTION":1.00273384,"ECCENTRICITY":0.00062655,"INCLINATION":12.1824,"RA_OF_ASC_NODE":332.9994,"ARG_OF_PERICENTER":33.8528,"MEAN_ANOMALY":161.1222,"EPHEMERIS_TYPE":0,"CLASSIFICATION_TYPE":"U","NORAD_CAT_ID":13631,"ELEMENT_SET_NO":999,"REV_AT_EPOCH":12563,"BSTAR":0,"MEAN_MOTION_DOT":-1.04e-6,"MEAN_MOTION_DDOT":0},{"OBJECT_NAME":"SBS 3","OBJECT_ID":"1982-110B","EPOCH":"2026-04-04T10:24:38.619648","MEAN_MOTION":0.99939605,"ECCENTRICITY":0.0005754,"INCLINATION":12.5812,"RA_OF_ASC_NODE":334.8919,"ARG_OF_PERICENTER":101.4996,"MEAN_ANOMALY":89.7106,"EPHEMERIS_TYPE":0,"CLASSIFICATION_TYPE":"U","NORAD_CAT_ID":13651,"ELEMENT_SET_NO":999,"REV_AT_EPOCH":4580,"BSTAR":0,"MEAN_MOTION_DOT":-5.3e-7,"MEAN_MOTION_DDOT":0},{"OBJECT_NAME":"ANIK C3 (TELESAT 5)","OBJECT_ID":"1982-110C","EPOCH":"2026-04-04T04:31:19.476768","MEAN_MOTION":0.99896692,"ECCENTRICITY":0.00020387,"INCLINATION":12.5561,"RA_OF_ASC_NODE":334.7058,"ARG_OF_PERICENTER":9.6772,"MEAN_ANOMALY":337.1511,"EPHEMERIS_TYPE":0,"CLASSIFICATION_TYPE":"U","NORAD_CAT_ID":13652,"ELEMENT_SET_NO":999,"REV_AT_EPOCH":4576,"BSTAR":0,"MEAN_MOTION_DOT":6.7e-7,"MEAN_MOTION_DDOT":0},{"OBJECT_NAME":"RADUGA 12","OBJECT_ID":"1983-028A","EPOCH":"2026-04-04T02:51:06.588000","MEAN_MOTION":1.00251636,"ECCENTRICITY":0.0002579,"INCLINATION":8.3496,"RA_OF_ASC_NODE":306.8105,"ARG_OF_PERICENTER":6.2036,"MEAN_ANOMALY":352.4904,"EPHEMERIS_TYPE":0,"CLASSIFICATION_TYPE":"U","NORAD_CAT_ID":13974,"ELEMENT_SET_NO":999,"REV_AT_EPOCH":16863,"BSTAR":0,"MEAN_MOTION_DOT":-5.5e-7,"MEAN_MOTION_DDOT":0},{"OBJECT_NAME":"SL-12 R/B(2)","OBJECT_ID":"1983-028F","EPOCH":"2026-04-04T04:31:38.667936","MEAN_MOTION":1.00047791,"ECCENTRICITY":0.00231659,"INCLINATION":8.3795,"RA_OF_ASC_NODE":306.8745,"ARG_OF_PERICENTER":222.8109,"MEAN_ANOMALY":122.6061,"EPHEMERIS_TYPE":0,"CLASSIFICATION_TYPE":"U","NORAD_CAT_ID":13983,"ELEMENT_SET_NO":999,"REV_AT_EPOCH":15706,"BSTAR":0,"MEAN_MOTION_DOT":1.22e-6,"MEAN_MOTION_DDOT":0},{"OBJECT_NAME":"SATCOM 1R","OBJECT_ID":"1983-030A","EPOCH":"2026-04-02T18:17:51.391104","MEAN_MOTION":0.99844728,"ECCENTRICITY":0.00052949,"INCLINATION":13.2725,"RA_OF_ASC_NODE":339.0562,"ARG_OF_PERICENTER":109.8847,"MEAN_ANOMALY":79.0142,"EPHEMERIS_TYPE":0,"CLASSIFICATION_TYPE":"U","NORAD_CAT_ID":13984,"ELEMENT_SET_NO":999,"REV_AT_EPOCH":12972,"BSTAR":0,"MEAN_MOTION_DOT":5.9e-7,"MEAN_MOTION_DDOT":0},{"OBJECT_NAME":"GOES 6","OBJECT_ID":"1983-041A","EPOCH":"2026-04-04T05:23:29.472288","MEAN_MOTION":1.00220841,"ECCENTRICITY":0.0001716,"INCLINATION":10.3094,"RA_OF_ASC_NODE":321.7098,"ARG_OF_PERICENTER":311.2483,"MEAN_ANOMALY":245.0675,"EPHEMERIS_TYPE":0,"CLASSIFICATION_TYPE":"U","NORAD_CAT_ID":14050,"ELEMENT_SET_NO":999,"REV_AT_EPOCH":21527,"BSTAR":0,"MEAN_MOTION_DOT":-3.9e-7,"MEAN_MOTION_DDOT":0},{"OBJECT_NAME":"SL-12 R/B(2)","OBJECT_ID":"1982-044F","EPOCH":"2026-04-03T19:38:37.998240","MEAN_MOTION":1.00263972,"ECCENTRICITY":0.00143423,"INCLINATION":8.3566,"RA_OF_ASC_NODE":297.2706,"ARG_OF_PERICENTER":197.7939,"MEAN_ANOMALY":345.7198,"EPHEMERIS_TYPE":0,"CLASSIFICATION_TYPE":"U","NORAD_CAT_ID":14114,"ELEMENT_SET_NO":999,"REV_AT_EPOCH":4659,"BSTAR":0,"MEAN_MOTION_DOT":-6.9e-7,"MEAN_MOTION_DDOT":0},{"OBJECT_NAME":"PALAPA B1","OBJECT_ID":"1983-059C","EPOCH":"2026-04-03T19:48:29.552256","MEAN_MOTION":1.00170544,"ECCENTRICITY":0.00022899,"INCLINATION":11.6819,"RA_OF_ASC_NODE":329.9977,"ARG_OF_PERICENTER":68.3484,"MEAN_ANOMALY":119.4666,"EPHEMERIS_TYPE":0,"CLASSIFICATION_TYPE":"U","NORAD_CAT_ID":14134,"ELEMENT_SET_NO":999,"REV_AT_EPOCH":12004,"BSTAR":0,"MEAN_MOTION_DOT":1.18e-6,"MEAN_MOTION_DDOT":0},{"OBJECT_NAME":"GALAXY 1 (G-1)","OBJECT_ID":"1983-065A","EPOCH":"2026-04-04T00:35:19.611456","MEAN_MOTION":1.00134364,"ECCENTRICITY":0.00041732,"INCLINATION":13.6546,"RA_OF_ASC_NODE":342.2202,"ARG_OF_PERICENTER":320.1732,"MEAN_ANOMALY":212.5954,"EPHEMERIS_TYPE":0,"CLASSIFICATION_TYPE":"U","NORAD_CAT_ID":14158,"ELEMENT_SET_NO":999,"REV_AT_EPOCH":4588,"BSTAR":0,"MEAN_MOTION_DOT":-3.01e-6,"MEAN_MOTION_DDOT":0},{"OBJECT_NAME":"SL-12 R/B(2)","OBJECT_ID":"1981-102F","EPOCH":"2026-04-03T19:21:18.861120","MEAN_MOTION":1.00238962,"ECCENTRICITY":0.00082395,"INCLINATION":6.7814,"RA_OF_ASC_NODE":295.0224,"ARG_OF_PERICENTER":228.2944,"MEAN_ANOMALY":131.4145,"EPHEMERIS_TYPE":0,"CLASSIFICATION_TYPE":"U","NORAD_CAT_ID":14195,"ELEMENT_SET_NO":999,"REV_AT_EPOCH":12225,"BSTAR":0,"MEAN_MOTION_DOT":-2.5e-7,"MEAN_MOTION_DDOT":0},{"OBJECT_NAME":"INSAT-1B","OBJECT_ID":"1983-089B","EPOCH":"2026-04-04T02:56:58.526304","MEAN_MOTION":1.00169262,"ECCENTRICITY":0.00086854,"INCLINATION":11.2685,"RA_OF_ASC_NODE":327.5108,"ARG_OF_PERICENTER":255.4636,"MEAN_ANOMALY":104.3084,"EPHEMERIS_TYPE":0,"CLASSIFICATION_TYPE":"U","NORAD_CAT_ID":14318,"ELEMENT_SET_NO":999,"REV_AT_EPOCH":12446,"BSTAR":0,"MEAN_MOTION_DOT":-2.34e-6,"MEAN_MOTION_DDOT":0},{"OBJECT_NAME":"GALAXY 2 (G-2)","OBJECT_ID":"1983-098A","EPOCH":"2026-04-04T08:22:38.835840","MEAN_MOTION":1.00180724,"ECCENTRICITY":0.00037931,"INCLINATION":13.6649,"RA_OF_ASC_NODE":342.5333,"ARG_OF_PERICENTER":75.2028,"MEAN_ANOMALY":107.3627,"EPHEMERIS_TYPE":0,"CLASSIFICATION_TYPE":"U","NORAD_CAT_ID":14365,"ELEMENT_SET_NO":999,"REV_AT_EPOCH":13149,"BSTAR":0,"MEAN_MOTION_DOT":1.04e-6,"MEAN_MOTION_DDOT":0}]
