ANIK D1 (TELESAT 6)     
1 13431U 82082A   26094.48883054 -.00000325  00000+0  00000+0 0  9992
2 13431  12.2923 333.4299 0007824 345.9356 187.6291  1.00134199 45867
EKRAN 9                 
1 13554U 82093A   26094.59844147 -.00000324  00000+0  00000+0 0  9991
2 13554   7.2512 300.2076 0027962   8.9351 201.3007  1.00245679119263
GORIZONT 6              
1 13624U 82103A   26094.21355330  .00000082  00000+0  00000+0 0  9991
2 13624   7.5008 302.4255 0003192 357.1692 158.1478  1.00269663120209
SL-12 R/B(2)            
1 13630U 82103E   26093.98925907 -.00000310  00000+0  00000+0 0  9999
2 13630   7.4611 302.3047 0010707 189.8169 192.2398  1.00345659120763
SATCOM C5               
1 13631U 82105A   26094.22646668 -.00000104  00000+0  00000+0 0  9995
2 13631  12.1824 332.9994 0006265  33.8528 161.1222  1.00273384125631
SBS 3                   
1 13651U 82110B   26094.43378032 -.00000053  00000+0  00000+0 0  9996
2 13651  12.5812 334.8919 0005754 101.4996  89.7106  0.99939605 45803
ANIK C3 (TELESAT 5)     
1 13652U 82110C   26094.18841987  .00000067  00000+0  00000+0 0  9997
2 13652  12.5561 334.7058 0002038   9.6772 337.1511  0.99896692 45764
RADUGA 12               
1 13974U 83028A   26094.11882625 -.00000055  00000+0  00000+0 0  9998
2 13974   8.3496 306.8105 0002579   6.2036 352.4904  1.00251636168634
SL-12 R/B(2)            
1 13983U 83028F   26094.18864199  .00000122  00000+0  00000+0 0  9995
2 13983   8.3795 306.8745 0023165 222.8109 122.6061  1.00047791157068
SATCOM 1R               
1 13984U 83030A   26092.76240036  .00000059  00000+0  00000+0 0  9998
2 13984  13.2725 339.0562 0005294 109.8847  79.0142  0.99844728129727
GOES 6                  
1 14050U 83041A   26094.22464667 -.00000039  00000+0  00000+0 0  9995
2 14050  10.3094 321.7098 0001716 311.2483 245.0675  1.00220841215270
SL-12 R/B(2)            
1 14114U 82044F   26093.81849535 -.00000069  00000+0  00000+0 0  9996
2 14114   8.3566 297.2706 0014342 197.7939 345.7198  1.00263972 46594
PALAPA B1               
1 14134U 83059C   26093.82534204  .00000118  00000+0  00000+0 0  9994
2 14134  11.6819 329.9977 0002289  68.3484 119.4666  1.00170544120043
GALAXY 1 (G-1)          
1 14158U 83065A   26094.02453254 -.00000301  00000+0  00000+0 0  9990
2 14158  13.6546 342.2202 0004173 320.1732 212.5954  1.00134364 45889
SL-12 R/B(2)            
1 14195U 81102F   26093.80646830 -.00000025  00000+0  00000+0 0  9993
2 14195   6.7814 295.0224 0008239 228.2944 131.4145  1.00238962122257
INSAT-1B                
1 14318U 83089B   26094.12289961 -.00000234  00000+0  00000+0 0  9992
2 14318  11.2685 327.5108 0008685 255.4636 104.3084  1.00169262124460
GALAXY 2 (G-2)          
1 14365U 83098A   26094.34906060  .00000104  00000+0  00000+0 0  9999
2 14365  13.6649 342.5333 0003793  75.2028 107.3627  1.00180724131496
